NORAD_CAT_ID,OBJECT_NAME,OBJECT_TYPE,EPOCH,MEAN_MOTION,ECCENTRICITY,INCLINATION,RA_OF_ASC_NODE,ARG_OF_PERICENTER,MEAN_ANOMALY,BSTAR,MEAN_MOTION_DOT,MEAN_MOTION_DDOT,TLE_LINE0,TLE_LINE1,TLE_LINE2,SEMIMAJOR_AXIS,PERIOD,APOGEE,PERIGEE,DECAYED
53139.0,STARLINK-4185,PAYLOAD,2023-11-23 07:39:38,15.08839263,0.0001662,53.2175,333.2228,105.8642,254.2534,3.3645e-05,2.47e-06,0.0,0 STARLINK-4185,1 53139U 22083H   23327.31919734  .00000247  00000-0  33645-4 0  9998,2 53139  53.2175 333.2228 0001662 105.8642 254.2534 15.08839263 75439,6917.883,95.438,540.897,538.598,0.0
53139.0,STARLINK-4185,PAYLOAD,2023-11-24 05:55:03,15.08829521,0.0001799,53.2183,329.0601,115.8105,244.3073,-6.1358e-05,-1.264e-05,0.0,0 STARLINK-4185,1 53139U 22083H   23328.24656668 -.00001264  00000-0 -61358-4 0  9999,2 53139  53.2183 329.0601 0001799 115.8105 244.3073 15.08829521 75571,6917.912,95.438,541.022,538.533,0.0
53139.0,STARLINK-4185,PAYLOAD,2023-11-25 04:10:28,15.0882358,0.0001836,53.2177,324.8953,125.4343,234.682,-0.00016686,-2.942e-05,0.0,0 STARLINK-4185,1 53139U 22083H   23329.17393843 -.00002942  00000-0 -16686-3 0  9992,2 53139  53.2177 324.8953 0001836 125.4343 234.6820 15.08823580 75717,6917.931,95.439,541.066,538.525,0.0
53139.0,STARLINK-4185,PAYLOAD,2023-11-25 07:21:15,15.08827939,0.0001482,53.2176,324.3008,114.1652,245.9495,-3.7103e-05,-8.78e-06,0.0,0 STARLINK-4185,1 53139U 22083H   23329.30642365 -.00000878  00000-0 -37103-4 0  9997,2 53139  53.2176 324.3008 0001482 114.1652 245.9495 15.08827939 75105,6917.917,95.438,540.807,538.757,0.0
53139.0,STARLINK-4185,PAYLOAD,2023-11-25 23:15:06,15.0883081,0.0001627,53.2181,321.3262,119.6982,240.4172,0.00017458,2.491e-05,0.0,0 STARLINK-4185,1 53139U 22083H   23329.96882206  .00002491  00000-0  17458-3 0  9990,2 53139  53.2181 321.3262 0001627 119.6982 240.4172 15.08830810 75831,6917.908,95.438,540.899,538.648,0.0
53139.0,STARLINK-4185,PAYLOAD,2023-11-26 07:12:01,15.08851429,0.0001816,53.2177,319.8399,109.4695,250.6493,0.00047633,7.303e-05,0.0,0 STARLINK-4185,1 53139U 22083H   23330.30001521  .00007303  00000-0  47633-3 0  9998,2 53139  53.2177 319.8399 0001816 109.4695 250.6493 15.08851429 75880,6917.845,95.437,540.967,538.454,0.0
53139.0,STARLINK-4185,PAYLOAD,2023-11-27 03:52:03,15.08831937,0.0001542,53.2173,315.9762,98.3413,261.7754,0.00016365,2.317e-05,0.0,0 STARLINK-4185,1 53139U 22083H   23331.16114939  .00002317  00000-0  16365-3 0  9999,2 53139  53.2173 315.9762 0001542  98.3413 261.7754 15.08831937 76018,6917.905,95.438,540.837,538.703,0.0
53139.0,STARLINK-4185,PAYLOAD,2023-11-27 05:27:26,15.08833324,0.0001649,53.217,315.678,105.592,254.5255,0.00017972,2.573e-05,0.0,0 STARLINK-4185,1 53139U 22083H   23331.22738842  .00002573  00000-0  17972-3 0  9990,2 53139  53.2170 315.6780 0001649 105.5920 254.5255 15.08833324 75392,6917.901,95.438,540.907,538.625,0.0
53139.0,STARLINK-4185,PAYLOAD,2023-11-28 05:18:12,15.08853956,0.0002634,53.2187,311.219,52.846,307.2772,0.00018141,2.601e-05,0.0,0 STARLINK-4185,1 53139U 22083H   23332.22098048  .00002601  00000-0  18141-3 0  9999,2 53139  53.2187 311.2190 0002634  52.8460 307.2772 15.08853956 76175,6917.838,95.437,541.525,537.881,0.0
53139.0,STARLINK-4185,PAYLOAD,2023-11-28 22:47:26,15.08850768,0.0001668,53.2166,307.9466,99.6244,260.4937,0.00021724,3.172e-05,0.0,0 STARLINK-4185,1 53139U 22083H   23332.94961428  .00003172  00000-0  21724-3 0  9994,2 53139  53.2166 307.9466 0001668  99.6244 260.4937 15.08850768 75658,6917.847,95.437,540.866,538.559,0.0
53139.0,STARLINK-4185,PAYLOAD,2023-11-29 05:08:58,15.08855415,0.0001706,53.2172,306.7571,99.7546,260.3639,0.00027393,4.076e-05,0.0,0 STARLINK-4185,1 53139U 22083H   23333.21457079  .00004076  00000-0  27393-3 0  9999,2 53139  53.2172 306.7571 0001706  99.7546 260.3639 15.08855415 75694,6917.833,95.437,540.878,538.518,0.0
53139.0,STARLINK-4185,PAYLOAD,2023-11-30 01:48:59,15.08844724,0.0001723,53.2179,302.8891,104.3808,255.7375,-0.00023697,-4.058e-05,0.0,0 STARLINK-4185,1 53139U 22083H   23334.07569123 -.00004058  00000-0 -23697-3 0  9993,2 53139  53.2179 302.8891 0001723 104.3808 255.7375 15.08844724 76457,6917.866,95.437,540.923,538.539,0.0
53139.0,STARLINK-4185,PAYLOAD,2023-12-01 03:15:10,15.08839065,0.0001653,53.217,298.1304,104.0991,256.0185,7.6923e-05,9.36e-06,0.0,0 STARLINK-4185,1 53139U 22083H   23335.13553537  .00000936  00000-0  76923-4 0  9993,2 53139  53.2170 298.1304 0001653 104.0991 256.0185 15.08839065 76619,6917.883,95.438,540.892,538.605,0.0
53139.0,STARLINK-4185,PAYLOAD,2023-12-01 06:25:56,15.08845296,0.0001639,53.2176,297.5365,98.4702,261.6476,0.00024346,3.589e-05,0.0,0 STARLINK-4185,1 53139U 22083H   23335.26801444  .00003589  00000-0  24346-3 0  9998,2 53139  53.2176 297.5365 0001639  98.4702 261.6476 15.08845296 76006,6917.864,95.437,540.863,538.595,0.0
53139.0,STARLINK-4185,PAYLOAD,2023-12-02 03:05:56,15.08874743,0.0001666,53.2174,293.672,79.39,280.7279,0.00096513,0.0001512,0.0,0 STARLINK-4185,1 53139U 22083H   23336.12912714  .00015120  00000-0  96513-3 0  9996,2 53139  53.2174 293.6720 0001666  79.3900 280.7279 15.08874743 76769,6917.774,95.435,540.792,538.487,0.0
53139.0,STARLINK-4185,PAYLOAD,2023-12-03 02:56:44,15.0882424,0.0001886,53.2174,289.2035,90.9469,269.1739,-0.00030048,-5.065e-05,0.0,0 STARLINK-4185,1 53139U 22083H   23337.12274165 -.00005065  00000-0 -30048-3 0  9998,2 53139  53.2174 289.2035 0001886  90.9469 269.1739 15.08824240 76918,6917.929,95.439,541.098,538.489,0.0
53139.0,STARLINK-4185,PAYLOAD,2023-12-03 04:32:08,15.08821714,0.0001872,53.2181,288.9095,79.6738,280.4465,-0.00033237,-5.571e-05,0.0,0 STARLINK-4185,1 53139U 22083H   23337.18898437 -.00005571  00000-0 -33237-3 0  9993,2 53139  53.2181 288.9095 0001872  79.6738 280.4465 15.08821714 76292,6917.936,95.439,541.096,538.506,0.0
53139.0,STARLINK-4185,PAYLOAD,2023-12-03 20:25:59,15.08836611,0.0001613,53.2184,285.9389,128.7749,231.3388,-0.00019509,-3.391e-05,0.0,0 STARLINK-4185,1 53139U 22083H   23337.85138041 -.00003391  00000-0 -19509-3 0  9999,2 53139  53.2184 285.9389 0001613 128.7749 231.3388 15.08836611 77022,6917.891,95.438,540.872,538.64,0.0
53139.0,STARLINK-4185,PAYLOAD,2023-12-04 02:47:31,15.08849561,0.000157,53.2174,284.7544,87.8377,272.2794,2.0124e-05,3.2e-07,0.0,0 STARLINK-4185,1 53139U 22083H   23338.11633524  .00000032  00000-0  20124-4 0  9998,2 53139  53.2174 284.7544 0001570  87.8377 272.2794 15.08849561 77062,6917.851,95.437,540.802,538.63,0.0
53139.0,STARLINK-4185,PAYLOAD,2023-12-04 05:58:17,15.08847094,0.0001642,53.2177,284.154,107.2167,252.9005,0.00027379,4.073e-05,0.0,0 STARLINK-4185,1 53139U 22083H   23338.24881776  .00004073  00000-0  27379-3 0  9993,2 53139  53.2177 284.1540 0001642 107.2167 252.9005 15.08847094 76450,6917.859,95.437,540.86,538.588,0.0
53139.0,STARLINK-4185,PAYLOAD,2023-12-05 02:38:19,15.08843645,0.0001615,53.2166,280.2951,92.0364,268.0813,0.00043076,6.575e-05,0.0,0 STARLINK-4185,1 53139U 22083H   23339.10994360  .00006575  00000-0  43076-3 0  9994,2 53139  53.2166 280.2951 0001615  92.0364 268.0813 15.08843645 77219,6917.869,95.437,540.851,538.617,0.0
53139.0,STARLINK-4185,PAYLOAD,2023-12-05 20:07:33,15.08843246,0.0001624,53.2189,277.0213,115.0613,245.0548,0.00016238,2.297e-05,0.0,0 STARLINK-4185,1 53139U 22083H   23339.83858054  .00002297  00000-0  16238-3 0  9990,2 53139  53.2189 277.0213 0001624 115.0613 245.0548 15.08843246 76690,6917.87,95.437,540.859,538.612,0.0
53139.0,STARLINK-4185,PAYLOAD,2023-12-06 02:29:05,15.08847359,0.000168,53.2169,275.8319,103.999,256.1189,7.3036e-05,8.75e-06,0.0,0 STARLINK-4185,1 53139U 22083H   23340.10353939  .00000875  00000-0  73036-4 0  9994,2 53139  53.2169 275.8319 0001680 103.9990 256.1189 15.08847359 77365,6917.858,95.437,540.885,538.561,0.0
53139.0,STARLINK-4185,PAYLOAD,2023-12-06 05:39:52,15.08849785,0.0001689,53.2166,275.2363,108.2289,251.8887,0.0001102,1.467e-05,0.0,0 STARLINK-4185,1 53139U 22083H   23340.23601863  .00001467  00000-0  11020-3 0  9992,2 53139  53.2166 275.2363 0001689 108.2289 251.8887 15.08849785 76757,6917.85,95.437,540.884,538.547,0.0
53139.0,STARLINK-4185,PAYLOAD,2023-12-07 02:19:52,15.088404,0.0001749,53.2179,271.3662,114.3207,245.7968,-5.6771e-05,-1.192e-05,0.0,0 STARLINK-4185,1 53139U 22083H   23341.09714030 -.00001192  00000-0 -56771-4 0  9998,2 53139  53.2179 271.3662 0001749 114.3207 245.7968 15.08840400 77517,6917.879,95.438,540.954,538.534,0.0
53139.0,STARLINK-4185,PAYLOAD,2023-12-08 02:10:40,15.08841163,0.00016,53.2184,266.906,102.3576,257.7595,3.9865e-05,3.47e-06,0.0,0 STARLINK-4185,1 53139U 22083H   23342.09074419  .00000347  00000-0  39865-4 0  9993,2 53139  53.2184 266.9060 0001600 102.3576 257.7595 15.08841163 77030,6917.877,95.437,540.849,538.635,0.0
53139.0,STARLINK-4185,PAYLOAD,2023-12-08 19:39:54,15.08838311,0.0001576,53.2184,263.6408,98.063,262.0541,0.00012343,1.677e-05,0.0,0 STARLINK-4185,1 53139U 22083H   23342.81938595  .00001677  00000-0  12343-3 0  9995,2 53139  53.2184 263.6408 0001576  98.0630 262.0541 15.08838311 77776,6917.886,95.438,540.841,538.66,0.0
53139.0,STARLINK-4185,PAYLOAD,2023-12-09 05:12:13,15.08843007,0.0001592,53.2181,261.8546,86.8971,273.2203,0.00015518,2.183e-05,0.0,0 STARLINK-4185,1 53139U 22083H   23343.21682297  .00002183  00000-0  15518-3 0  9995,2 53139  53.2181 261.8546 0001592  86.8971 273.2203 15.08843007 77202,6917.871,95.437,540.838,538.635,0.0
53139.0,STARLINK-4185,PAYLOAD,2023-12-10 03:27:38,15.08837569,0.000179,53.2168,257.6902,69.24,290.8784,6.4519e-05,7.39e-06,0.0,0 STARLINK-4185,1 53139U 22083H   23344.14418988  .00000739  00000-0  64519-4 0  9993,2 53139  53.2168 257.6902 0001790  69.2400 290.8784 15.08837569 77977,6917.888,95.438,540.991,538.515,0.0
53139.0,STARLINK-4185,PAYLOAD,2023-12-10 22:32:15,15.08842001,0.000196,53.2174,254.1215,68.4483,291.6718,5.2834e-05,5.53e-06,0.0,0 STARLINK-4185,1 53139U 22083H   23344.93906737  .00000553  00000-0  52834-4 0  9995,2 53139  53.2174 254.1215 0001960  68.4483 291.6718 15.08842001 77461,6917.874,95.437,541.095,538.383,0.0
